NORAD_CAT_ID,OBJECT_NAME,OBJECT_TYPE,EPOCH,MEAN_MOTION,ECCENTRICITY,INCLINATION,RA_OF_ASC_NODE,ARG_OF_PERICENTER,MEAN_ANOMALY,BSTAR,MEAN_MOTION_DOT,MEAN_MOTION_DDOT,TLE_LINE0,TLE_LINE1,TLE_LINE2,SEMIMAJOR_AXIS,PERIOD,APOGEE,PERIGEE,DECAYED
50156.0,STARLINK-3317,PAYLOAD,2023-05-03 14:09:42,15.08835924,8.18e-05,53.215,242.7954,85.7359,274.3726,-6.0063e-05,-1.243e-05,0.0,0 STARLINK-3317,1 50156U 21125A   23123.59007550 -.00001243  00000-0 -60063-4 0  9991,2 50156  53.2150 242.7954 0000818  85.7359 274.3726 15.08835924 78946,6917.893,95.438,540.324,539.192,0.0
50156.0,STARLINK-3317,PAYLOAD,2023-05-04 12:25:06,15.08843403,8.27e-05,53.2149,238.6319,89.0097,271.099,0.00026404,3.917e-05,0.0,0 STARLINK-3317,1 50156U 21125A   23124.51743711  .00003917  00000-0  26404-3 0  9998,2 50156  53.2149 238.6319 0000827  89.0097 271.0990 15.08843403 79601,6917.87,95.437,540.307,539.163,0.0
50156.0,STARLINK-3317,PAYLOAD,2023-05-04 15:35:52,15.0884608,8.46e-05,53.2149,238.037,89.8432,270.2657,0.00034537,5.214e-05,0.0,0 STARLINK-3317,1 50156U 21125A   23124.64991647  .00005214  00000-0  34537-3 0  9993,2 50156  53.2149 238.0370 0000846  89.8432 270.2657 15.08846080 79104,6917.862,95.437,540.312,539.142,0.0
50156.0,STARLINK-3317,PAYLOAD,2023-05-05 01:08:11,15.08841881,8.73e-05,53.2149,236.2528,89.1434,270.9658,0.00028422,4.239e-05,0.0,0 STARLINK-3317,1 50156U 21125A   23125.04735885  .00004239  00000-0  28422-3 0  9990,2 50156  53.2149 236.2528 0000873  89.1434 270.9658 15.08841881 79162,6917.875,95.437,540.344,539.136,0.0
50156.0,STARLINK-3317,PAYLOAD,2023-05-05 15:26:40,15.08842518,0.000105,53.2151,233.5759,101.8476,258.2634,0.00020682,3.005e-05,0.0,0 STARLINK-3317,1 50156U 21125A   23125.64351955  .00003005  00000-0  20682-3 0  9998,2 50156  53.2151 233.5759 0001050 101.8476 258.2634 15.08842518 79775,6917.873,95.437,540.464,539.011,0.0
50156.0,STARLINK-3317,PAYLOAD,2023-05-06 13:42:03,15.08850865,0.0001041,53.2154,229.4117,106.4091,253.7015,0.000198,2.866e-05,0.0,0 STARLINK-3317,1 50156U 21125A   23126.57087582  .00002866  00000-0  19800-3 0  9997,2 50156  53.2154 229.4117 0001041 106.4091 253.7015 15.08850865 79917,6917.847,95.437,540.432,538.992,0.0
50156.0,STARLINK-3317,PAYLOAD,2023-05-06 23:14:22,15.08849949,0.0001167,53.2153,227.6281,91.8865,268.2261,0.00023597,3.471e-05,0.0,0 STARLINK-3317,1 50156U 21125A   23126.96831609  .00003471  00000-0  23597-3 0  9998,2 50156  53.2153 227.6281 0001167  91.8865 268.2261 15.08849949 79457,6917.85,95.437,540.522,538.908,0.0
50156.0,STARLINK-3317,PAYLOAD,2023-05-07 13:32:50,15.08849426,0.0001078,53.216,224.9512,92.1782,267.9334,0.00015705,2.213e-05,0.0,0 STARLINK-3317,1 50156U 21125A   23127.56447363  .00002213  00000-0  15705-3 0  9990,2 50156  53.2160 224.9512 0001078  92.1782 267.9334 15.08849426 80061,6917.852,95.437,540.462,538.971,0.0
50156.0,STARLINK-3317,PAYLOAD,2023-05-07 23:05:09,15.08850634,9.99e-05,53.2157,223.1695,81.5062,278.6043,0.00013894,1.925e-05,0.0,0 STARLINK-3317,1 50156U 21125A   23127.96191077  .00001925  00000-0  13894-3 0  9998,2 50156  53.2157 223.1695 0000999  81.5062 278.6043 15.08850634 79601,6917.848,95.437,540.404,539.022,0.0
50156.0,STARLINK-3317,PAYLOAD,2023-05-08 13:23:38,15.0883295,0.0001166,53.2158,220.497,109.4429,250.6689,-0.00012623,-2.296e-05,0.0,0 STARLINK-3317,1 50156U 21125A   23128.55808097 -.00002296  00000-0 -12623-3 0  9994,2 50156  53.2158 220.4970 0001166 109.4429 250.6689 15.08832950 79698,6917.902,95.438,540.574,538.96,0.0
50156.0,STARLINK-3317,PAYLOAD,2023-05-09 13:14:25,15.08845407,0.0001157,53.2158,216.0362,100.8263,259.286,7.4852e-05,9.04e-06,0.0,0 STARLINK-3317,1 50156U 21125A   23129.55167839  .00000904  00000-0  74852-4 0  9992,2 50156  53.2158 216.0362 0001157 100.8263 259.2860 15.08845407 80368,6917.864,95.437,540.529,538.928,0.0
50156.0,STARLINK-3317,PAYLOAD,2023-05-10 11:29:49,15.08838001,0.0001228,53.2154,211.8719,89.9158,270.1975,0.00017623,2.518e-05,0.0,0 STARLINK-3317,1 50156U 21125A   23130.47904758  .00002518  00000-0  17623-3 0  9999,2 50156  53.2154 211.8719 0001228  89.9158 270.1975 15.08838001 80509,6917.886,95.438,540.601,538.902,0.0
50156.0,STARLINK-3317,PAYLOAD,2023-05-10 13:05:12,15.08842572,0.0001179,53.2155,211.5738,101.2256,258.8869,0.00021674,3.163e-05,0.0,0 STARLINK-3317,1 50156U 21125A   23130.54528440  .00003163  00000-0  21674-3 0  9995,2 50156  53.2155 211.5738 0001179 101.2256 258.8869 15.08842572 80514,6917.873,95.437,540.553,538.922,0.0
50156.0,STARLINK-3317,PAYLOAD,2023-05-11 11:20:36,15.08848965,0.0001181,53.2156,207.4093,91.8071,268.3056,0.00010584,1.397e-05,0.0,0 STARLINK-3317,1 50156U 21125A   23131.47264232  .00001397  00000-0  10584-3 0  9999,2 50156  53.2156 207.4093 0001181  91.8071 268.3056 15.08848965 80656,6917.853,95.437,540.535,538.901,0.0
50156.0,STARLINK-3317,PAYLOAD,2023-05-11 22:28:18,15.08844465,0.0001209,53.2155,205.3289,85.7177,274.3953,0.00017448,2.49e-05,0.0,0 STARLINK-3317,1 50156U 21125A   23131.93632472  .00002490  00000-0  17448-3 0  9996,2 50156  53.2155 205.3289 0001209  85.7177 274.3953 15.08844465 80721,6917.867,95.437,540.568,538.895,0.0
50156.0,STARLINK-3317,PAYLOAD,2023-05-12 09:36:00,15.08834337,0.0001319,53.2156,203.2477,86.53,273.5843,1.3999e-05,-6.5e-07,0.0,0 STARLINK-3317,1 50156U 21125A   23132.40001076 -.00000065  00000-0  13999-4 0  9994,2 50156  53.2156 203.2477 0001319  86.5300 273.5843 15.08834337 80273,6917.898,95.438,540.675,538.85,0.0
50156.0,STARLINK-3317,PAYLOAD,2023-05-13 11:02:10,15.08846737,0.0001501,53.2168,198.4872,108.359,251.7566,0.00019189,2.768e-05,0.0,0 STARLINK-3317,1 50156U 21125A   23133.45984328  .00002768  00000-0  19189-3 0  9997,2 50156  53.2168 198.4872 0001501 108.3590 251.7566 15.08846737 80959,6917.86,95.437,540.763,538.686,0.0
50156.0,STARLINK-3317,PAYLOAD,2023-05-13 12:37:33,15.08842131,0.0001481,53.2161,198.1894,114.8294,245.2853,0.00030511,4.571e-05,0.0,0 STARLINK-3317,1 50156U 21125A   23133.52608485  .00004571  00000-0  30511-3 0  9998,2 50156  53.2161 198.1894 0001481 114.8294 245.2853 15.08842131 80448,6917.874,95.437,540.763,538.714,0.0
50156.0,STARLINK-3317,PAYLOAD,2023-05-14 07:42:11,15.08833941,0.0001499,53.2162,194.619,125.4126,234.7007,3.9277e-05,3.37e-06,0.0,0 STARLINK-3317,1 50156U 21125A   23134.32097053  .00000337  00000-0  39277-4 0  9995,2 50156  53.2162 194.6190 0001499 125.4126 234.7007 15.08833941 80566,6917.899,95.438,540.801,538.727,0.0
50156.0,STARLINK-3317,PAYLOAD,2023-05-14 12:28:21,15.08833226,0.0001324,53.2159,193.7274,117.9288,242.1838,-4.7932e-06,-3.64e-06,0.0,0 STARLINK-3317,1 50156U 21125A   23134.51969170 -.00000364  00000-0 -47932-5 0  9994,2 50156  53.2159 193.7274 0001324 117.9288 242.1838 15.08833226 81110,6917.901,95.438,540.682,538.85,0.0
50156.0,STARLINK-3317,PAYLOAD,2023-05-14 20:25:17,15.08835766,0.0001234,53.2159,192.2429,107.1463,252.9665,2.747e-05,1.49e-06,0.0,0 STARLINK-3317,1 50156U 21125A   23134.85089202  .00000149  00000-0  27470-4 0  9993,2 50156  53.2159 192.2429 0001234 107.1463 252.9665 15.08835766 81165,6917.893,95.438,540.612,538.905,0.0
50156.0,STARLINK-3317,PAYLOAD,2023-05-15 10:43:45,15.08841702,0.000106,53.2152,189.5691,96.8483,263.263,3.3233e-05,2.41e-06,0.0,0 STARLINK-3317,1 50156U 21125A   23135.44705092  .00000241  00000-0  33233-4 0  9998,2 50156  53.2152 189.5691 0001060  96.8483 263.2630 15.08841702 80737,6917.875,95.437,540.473,539.007,0.0
50156.0,STARLINK-3317,PAYLOAD,2023-05-15 20:16:04,15.08839341,0.0001055,53.2151,187.7851,95.7234,264.3878,3.5425e-05,2.76e-06,0.0,0 STARLINK-3317,1 50156U 21125A   23135.84449283  .00000276  00000-0  35425-4 0  9992,2 50156  53.2151 187.7851 0001055  95.7234 264.3878 15.08839341 81317,6917.882,95.438,540.477,539.018,0.0
50156.0,STARLINK-3317,PAYLOAD,2023-05-16 12:09:55,15.08841453,0.0001056,53.215,184.8115,92.7568,267.3545,0.00014654,2.045e-05,0.0,0 STARLINK-3317,1 50156U 21125A   23136.50689319  .00002045  00000-0  14654-3 0  9998,2 50156  53.2150 184.8115 0001056  92.7568 267.3545 15.08841453 80898,6917.876,95.437,540.471,539.01,0.0
50156.0,STARLINK-3317,PAYLOAD,2023-05-16 20:06:51,15.08840567,0.0001059,53.2149,183.3246,92.2462,267.8651,0.00011251,1.503e-05,0.0,0 STARLINK-3317,1 50156U 21125A   23136.83809360  .00001503  00000-0  11251-3 0  9992,2 50156  53.2149 183.3246 0001059  92.2462 267.8651 15.08840567 81468,6917.879,95.438,540.476,539.011,0.0
50156.0,STARLINK-3317,PAYLOAD,2023-05-17 19:57:38,15.08840043,0.0001068,53.2142,178.8636,89.0659,271.0456,4.1797e-05,3.77e-06,0.0,0 STARLINK-3317,1 50156U 21125A   23137.83169297  .00000377  00000-0  41797-4 0  9998,2 50156  53.2142 178.8636 0001068  89.0659 271.0456 15.08840043 81611,6917.88,95.438,540.484,539.006,0.0
50156.0,STARLINK-3317,PAYLOAD,2023-05-18 11:51:29,15.08840279,0.0001096,53.216,175.8887,90.0953,270.0165,4.9392e-05,4.98e-06,0.0,0 STARLINK-3317,1 50156U 21125A   23138.49409555  .00000498  00000-0  49392-4 0  9998,2 50156  53.2160 175.8887 0001096  90.0953 270.0165 15.08840279 81714,6917.88,95.438,540.503,538.986,0.0
50156.0,STARLINK-3317,PAYLOAD,2023-05-18 19:48:25,15.08838551,0.0001096,53.2161,174.4013,89.6353,270.4764,2.652e-05,1.34e-06,0.0,0 STARLINK-3317,1 50156U 21125A   23138.82529703  .00000134  00000-0  26520-4 0  9998,2 50156  53.2161 174.4013 0001096  89.6353 270.4764 15.08838551 81763,6917.885,95.438,540.508,538.992,0.0
50156.0,STARLINK-3317,PAYLOAD,2023-05-19 08:31:30,15.08840293,0.0001063,53.2162,172.0213,92.7223,267.389,2.9172e-05,1.77e-06,0.0,0 STARLINK-3317,1 50156U 21125A   23139.35521568  .00000177  00000-0  29172-4 0  9991,2 50156  53.2162 172.0213 0001063  92.7223 267.3890 15.08840293 81328,6917.879,95.438,540.48,539.009,0.0
50156.0,STARLINK-3317,PAYLOAD,2023-05-19 19:39:12,15.08840966,0.0001043,53.2163,169.9405,90.2467,269.8644,4.8412e-05,4.83e-06,0.0,0 STARLINK-3317,1 50156U 21125A   23139.81889452  .00000483  00000-0  48412-4 0  9999,2 50156  53.2163 169.9405 0001043  90.2467 269.8644 15.08840966 81914,6917.877,95.437,540.464,539.021,0.0
